{
  "type": "FeatureCollection",
  "features": [
    {
      "type": "Feature",
      "properties": {
        "norad_id": 64751,
        "name": "PROGRESS-MS 31",
        "group": "stations",
        "lat": -36.29249985404487,
        "lon": 68.96502441821916,
        "alt_km": 419.93402224972397,
        "timestamp": "2025-12-20T09:36:00.383110+00:00",
        "meta_object_name": "PROGRESS-MS 31",
        "meta_object_id": "2025-146A",
        "meta_epoch": "2025-12-19T18:20:02.855616",
        "meta_mean_motion": 15.49672026,
        "meta_eccentricity": 0.00031868,
        "meta_inclination": 51.6318,
        "meta_ra_of_asc_node": 107.6945,
        "meta_arg_of_pericenter": 273.0117,
        "meta_mean_anomaly": 87.0507,
        "meta_ephemeris_type": 0,
        "meta_classification_type": "U",
        "meta_norad_cat_id": 64751,
        "meta_element_set_no": 999,
        "meta_rev_at_epoch": 675,
        "meta_bstar": 0.0001262585,
        "meta_mean_motion_dot": 6.675e-05,
        "meta_mean_motion_ddot": 0,
        "tle_line1": "1 64751U 25146A   25353.76392194  .00006675  00000+0  12626-3 0  9993",
        "tle_line2": "2 64751  51.6318 107.6945 0003186 273.0117  87.0507 15.49672026  6757"
      },
      "geometry": {
        "type": "Point",
        "coordinates": [
          68.96502441821916,
          -36.29249985404487
        ]
      }
    },
    {
      "type": "Feature",
      "properties": {
        "norad_id": 64786,
        "name": "TIANZHOU-9",
        "group": "stations",
        "lat": -0.7570294058763462,
        "lon": -30.667128856983034,
        "alt_km": 389.62497205295404,
        "timestamp": "2025-12-20T09:36:00.383125+00:00",
        "meta_object_name": "TIANZHOU-9",
        "meta_object_id": "2025-149A",
        "meta_epoch": "2025-12-19T22:50:46.623264",
        "meta_mean_motion": 15.5948412,
        "meta_eccentricity": 0.00077419,
        "meta_inclination": 41.4684,
        "meta_ra_of_asc_node": 332.9127,
        "meta_arg_of_pericenter": 94.7688,
        "meta_mean_anomaly": 265.4034,
        "meta_ephemeris_type": 0,
        "meta_classification_type": "U",
        "meta_norad_cat_id": 64786,
        "meta_element_set_no": 999,
        "meta_rev_at_epoch": 25530,
        "meta_bstar": 0.0002198914,
        "meta_mean_motion_dot": 0.00017657,
        "meta_mean_motion_ddot": 0,
        "tle_line1": "1 64786U 25149A   25353.95192851  .00017657  00000+0  21989-3 0  9997",
        "tle_line2": "2 64786  41.4684 332.9127 0007741  94.7688 265.4034 15.59484120255306"
      },
      "geometry": {
        "type": "Point",
        "coordinates": [
          -30.667128856983034,
          -0.7570294058763462
        ]
      }
    },
    {
      "type": "Feature",
      "properties": {
        "norad_id": 65077,
        "name": "CREW DRAGON 11",
        "group": "stations",
        "lat": -36.29249878394646,
        "lon": 68.965026021254,
        "alt_km": 419.9340222317214,
        "timestamp": "2025-12-20T09:36:00.383136+00:00",
        "meta_object_name": "CREW DRAGON 11",
        "meta_object_id": "2025-166A",
        "meta_epoch": "2025-12-19T18:20:02.855616",
        "meta_mean_motion": 15.49672026,
        "meta_eccentricity": 0.00031868,
        "meta_inclination": 51.6318,
        "meta_ra_of_asc_node": 107.6945,
        "meta_arg_of_pericenter": 273.0117,
        "meta_mean_anomaly": 87.0507,
        "meta_ephemeris_type": 0,
        "meta_classification_type": "U",
        "meta_norad_cat_id": 65077,
        "meta_element_set_no": 999,
        "meta_rev_at_epoch": 214,
        "meta_bstar": 0.0001262585,
        "meta_mean_motion_dot": 6.675e-05,
        "meta_mean_motion_ddot": 0,
        "tle_line1": "1 65077U 25166A   25353.76392194  .00006675  00000+0  12626-3 0  9997",
        "tle_line2": "2 65077  51.6318 107.6945 0003186 273.0117  87.0507 15.49672026  2148"
      },
      "geometry": {
        "type": "Point",
        "coordinates": [
          68.965026021254,
          -36.29249878394646
        ]
      }
    },
    {
      "type": "Feature",
      "properties": {
        "norad_id": 65304,
        "name": "DRAGON CRS-33",
        "group": "stations",
        "lat": -36.29249837236976,
        "lon": 68.96502663780645,
        "alt_km": 419.9340222248002,
        "timestamp": "2025-12-20T09:36:00.383146+00:00",
        "meta_object_name": "DRAGON CRS-33",
        "meta_object_id": "2025-186A",
        "meta_epoch": "2025-12-19T18:20:02.855616",
        "meta_mean_motion": 15.49672026,
        "meta_eccentricity": 0.00031868,
        "meta_inclination": 51.6318,
        "meta_ra_of_asc_node": 107.6945,
        "meta_arg_of_pericenter": 273.0117,
        "meta_mean_anomaly": 87.0507,
        "meta_ephemeris_type": 0,
        "meta_classification_type": "U",
        "meta_norad_cat_id": 65304,
        "meta_element_set_no": 999,
        "meta_rev_at_epoch": 11,
        "meta_bstar": 0.0001262585,
        "meta_mean_motion_dot": 6.675e-05,
        "meta_mean_motion_ddot": 0,
        "tle_line1": "1 65304U 25186A   25353.76392194  .00006675  00000+0  12626-3 0  9992",
        "tle_line2": "2 65304  51.6318 107.6945 0003186 273.0117  87.0507 15.49672026   116"
      },
      "geometry": {
        "type": "Point",
        "coordinates": [
          68.96502663780645,
          -36.29249837236976
        ]
      }
    },
    {
      "type": "Feature",
      "properties": {
        "norad_id": 65586,
        "name": "PROGRESS-MS 32",
        "group": "stations",
        "lat": -36.29249787847808,
        "lon": 68.9650273776688,
        "alt_km": 419.93402221649103,
        "timestamp": "2025-12-20T09:36:00.383158+00:00",
        "meta_object_name": "PROGRESS-MS 32",
        "meta_object_id": "2025-204A",
        "meta_epoch": "2025-12-19T18:20:02.855616",
        "meta_mean_motion": 15.49672026,
        "meta_eccentricity": 0.00031868,
        "meta_inclination": 51.6318,
        "meta_ra_of_asc_node": 107.6945,
        "meta_arg_of_pericenter": 273.0117,
        "meta_mean_anomaly": 87.0507,
        "meta_ephemeris_type": 0,
        "meta_classification_type": "U",
        "meta_norad_cat_id": 65586,
        "meta_element_set_no": 999,
        "meta_rev_at_epoch": 27,
        "meta_bstar": 0.0001262585,
        "meta_mean_motion_dot": 6.675e-05,
        "meta_mean_motion_ddot": 0,
        "tle_line1": "1 65586U 25204A   25353.76392194  .00006675  00000+0  12626-3 0  9995",
        "tle_line2": "2 65586  51.6318 107.6945 0003186 273.0117  87.0507 15.49672026   275"
      },
      "geometry": {
        "type": "Point",
        "coordinates": [
          68.9650273776688,
          -36.29249787847808
        ]
      }
    },
    {
      "type": "Feature",
      "properties": {
        "norad_id": 65616,
        "name": "CYGNUS NG-23",
        "group": "stations",
        "lat": -36.292497466901374,
        "lon": 68.96502799422122,
        "alt_km": 419.93402220956705,
        "timestamp": "2025-12-20T09:36:00.383168+00:00",
        "meta_object_name": "CYGNUS NG-23",
        "meta_object_id": "2025-208A",
        "meta_epoch": "2025-12-19T18:20:02.855616",
        "meta_mean_motion": 15.49672026,
        "meta_eccentricity": 0.00031868,
        "meta_inclination": 51.6318,
        "meta_ra_of_asc_node": 107.6945,
        "meta_arg_of_pericenter": 273.0117,
        "meta_mean_anomaly": 87.0507,
        "meta_ephemeris_type": 0,
        "meta_classification_type": "U",
        "meta_norad_cat_id": 65616,
        "meta_element_set_no": 999,
        "meta_rev_at_epoch": 22,
        "meta_bstar": 0.0001262585,
        "meta_mean_motion_dot": 6.675e-05,
        "meta_mean_motion_ddot": 0,
        "tle_line1": "1 65616U 25208A   25353.76392194  .00006675  00000+0  12626-3 0  9993",
        "tle_line2": "2 65616  51.6318 107.6945 0003186 273.0117  87.0507 15.49672026   224"
      },
      "geometry": {
        "type": "Point",
        "coordinates": [
          68.96502799422122,
          -36.292497466901374
        ]
      }
    },
    {
      "type": "Feature",
      "properties": {
        "norad_id": 65729,
        "name": "DRAGONFLY",
        "group": "stations",
        "lat": -30.802775981565137,
        "lon": -55.34495139160983,
        "alt_km": 351.08150545941953,
        "timestamp": "2025-12-20T09:36:00.383178+00:00",
        "meta_object_name": "DRAGONFLY",
        "meta_object_id": "1998-067XH",
        "meta_epoch": "2025-12-19T14:23:03.835680",
        "meta_mean_motion": 15.741828,
        "meta_eccentricity": 0.000728,
        "meta_inclination": 51.6251,
        "meta_ra_of_asc_node": 100.5779,
        "meta_arg_of_pericenter": 320.5398,
        "meta_mean_anomaly": 39.507,
        "meta_ephemeris_type": 0,
        "meta_classification_type": "U",
        "meta_norad_cat_id": 65729,
        "meta_element_set_no": 999,
        "meta_rev_at_epoch": 1424,
        "meta_bstar": 0.00096899,
        "meta_mean_motion_dot": 0.00144123,
        "meta_mean_motion_ddot": 0,
        "tle_line1": "1 65729U 98067XH  25353.59934995  .00144123  00000+0  96899-3 0  9998",
        "tle_line2": "2 65729  51.6251 100.5779 0007280 320.5398  39.5070 15.74182800 14248"
      },
      "geometry": {
        "type": "Point",
        "coordinates": [
          -55.34495139160983,
          -30.802775981565137
        ]
      }
    }
  ]
}